{"fetched_at":"2026-03-29T16:36:15Z","count":15609,"tles":[{"name":"STARLINK-35900","line1":"1 66886U 25283J   26087.83518645 -.00018029  00000+0 -59841-3 0  9998","line2":"2 66886  53.1592 295.3657 0001405  92.1909 267.9252 15.30180769 18774","category":"Starlink"}]}