{
  "norad_id": 66886,
  "name": "STARLINK-35900",
  "history": [
    {
      "epoch": "2026-03-28T20:02:40.109280Z",
      "apogee_km": 476.2356684900542,
      "perigee_km": 474.3093121505153,
      "latitude_deg": -5.15698614809522e-05,
      "longitude_deg": 168.4486063472327,
      "height_km": 476.2071149079444,
      "semi_major_axis_km": 6853.409490320284,
      "eccentricity": 0.00014054,
      "inclination_deg": 53.1592,
      "raan_deg": 295.3657,
      "arg_perigee_deg": 92.1909,
      "mean_anomaly_deg": 267.9252,
      "mean_motion_rev_day": 15.30180769
    }
  ]
}